1 03182           19337.16666667  .00000133  00000-0  24409-3 0 00003
2 03182 053.7131 072.4712 0008050 268.9524 307.2741 13.39839540
1 03183           19337.16666667  .00000177  00000-0  32493-3 0 00004
2 03183 053.7131 072.4712 0008049 268.9549 314.4716 13.39839482
1 03184           19337.16666667  .00000210  00000-0  38581-3 0 00007
2 03184 053.7131 072.4712 0008048 268.9541 321.6724 13.39839431
1 03185           19337.16666667  .00000231  00000-0  42348-3 0 00007
2 03185 053.7131 072.4712 0008046 268.9502 328.8764 13.39839391
1 03186           19337.16666667  .00000238  00000-0  43612-3 0 00000
2 03186 053.7131 072.4712 0008046 268.9433 336.0833 13.39839363
1 03187           19337.16666667  .00000231  00000-0  42334-3 0 00004
2 03187 053.7131 072.4712 0008045 268.9343 343.2923 13.39839348
1 03188           19337.16666667  .00000211  00000-0  38623-3 0 00009
2 03188 053.7131 072.4712 0008045 268.9243 350.5024 13.39839347
1 03189           19337.16666667  .00000179  00000-0  32735-3 0 00001
2 03189 053.7131 072.4712 0008046 268.9145 357.7122 13.39839360
1 03190           19337.16666667  .00000137  00000-0  25064-3 0 00004
2 03190 053.7131 072.4712 0008046 268.9061 004.9206 13.39839386
1 03191           19337.16666667  .00000088  00000-0  16113-3 0 00005
2 03191 053.7131 072.4712 0008048 268.9001 012.1266 13.39839421
1 03192           19337.16666667  .00000035  00000-0  64588-4 0 00008
2 03192 053.7131 072.4712 0008049 268.8972 019.3295 13.39839465
1 03193           19337.16666667 -.00000018  00000-0 -32818-4 0 00003
2 03193 053.7131 072.4712 0008050 268.8975 026.5291 13.39839512
1 03194           19337.16666667 -.00000068  00000-0 -12495-3 0 00007
2 03194 053.7131 072.4712 0008052 268.9010 033.7257 13.39839561
1 03195           19337.16666667 -.00000112  00000-0 -20614-3 0 00000
2 03195 053.7131 072.4712 0008053 268.9069 040.9197 13.39839607
1 03196           19337.16666667 -.00000148  00000-0 -27153-3 0 00005
2 03196 053.7131 072.4712 0008054 268.9145 048.1120 13.39839647
1 03197           19337.16666667 -.00000173  00000-0 -31733-3 0 00003
2 03197 053.7131 072.4712 0008054 268.9228 055.3037 13.39839679
1 03198           19337.16666667 -.00000186  00000-0 -34092-3 0 00009
2 03198 053.7131 072.4712 0008054 268.9307 062.4958 13.39839701
1 03199           19337.16666667 -.00000186  00000-0 -34108-3 0 00008
2 03199 053.7131 072.4712 0008053 268.9371 069.6893 13.39839711
1 03200           19337.16666667 -.00000314  00000-0 -63504-3 0 00000
2 03200 074.0910 229.6463 0009540 270.9687 099.5190 13.33855692
1 03201           19337.16666667 -.00000205  00000-0 -41323-3 0 00005
2 03201 074.0910 229.6463 0009538 270.9363 106.7515 13.33855591
1 03202           19337.16666667 -.00000074  00000-0 -14918-3 0 00000
2 03202 074.0910 229.6463 0009537 270.9022 113.9857 13.33855467
1 03203           19337.16666667  .00000048  00000-0  96556-4 0 00009
2 03203 074.0910 229.6462 0009537 270.8676 121.2204 13.33855345
1 03204           19337.16666667  .00000170  00000-0  34262-3 0 00001
2 03204 074.0910 229.6462 0009538 270.8332 128.4549 13.33855219
1 03205           19337.16666667  .00000284  00000-0  57463-3 0 00006
2 03205 074.0910 229.6462 0009539 270.8000 135.6882 13.33855096
1 03206           19337.16666667  .00000385  00000-0  77857-3 0 00008
2 03206 074.0910 229.6462 0009541 270.7688 142.9195 13.33854984
1 03207           19337.16666667  .00000466  00000-0  94172-3 0 00008
2 03207 074.0910 229.6462 0009544 270.7403 150.1481 13.33854888
1 03208           19337.16666667  .00000522  00000-0  10536-2 0 00003
2 03208 074.0910 229.6462 0009548 270.7152 157.3733 13.33854815
1 03209           19337.16666667  .00000548  00000-0  11070-2 0 00006
2 03209 074.0910 229.6462 0009552 270.6936 164.5949 13.33854768
1 03210           19337.16666667  .00000533  00000-0  10771-2 0 00009
2 03210 074.0910 229.6462 0009556 270.6761 171.8125 13.33854767
1 03211           19337.16666667  .00000499  00000-0  10084-2 0 00008
2 03211 074.0910 229.6462 0009560 270.6621 179.0265 13.33854782
1 03212           19337.16666667  .00000439  00000-0  88689-3 0 00000
2 03212 074.0910 229.6462 0009565 270.6518 186.2367 13.33854824
1 03213           19337.16666667  .00000367  00000-0  74069-3 0 00008
2 03213 074.0910 229.6462 0009570 270.6449 193.4436 13.33854879
1 03214           19337.16666667  .00000265  00000-0  53628-3 0 00004
2 03214 074.0910 229.6462 0009574 270.6412 200.6472 13.33854968
1 03215           19337.16666667  .00000154  00000-0  31010-3 0 00003
2 03215 074.0910 229.6463 0009579 270.6406 207.8478 13.33855071
1 03216           19337.16666667  .00000039  00000-0  77890-4 0 00003
2 03216 074.0910 229.6463 0009583 270.6429 215.0454 13.33855180
1 03217           19337.16666667 -.00000071  00000-0 -14419-3 0 00009
2 03217 074.0910 229.6463 0009588 270.6481 222.2402 13.33855287
1 03218           19337.16666667 -.00000169  00000-0 -34118-3 0 00006
2 03218 074.0910 229.6463 0009592 270.6560 229.4322 13.33855385
1 03219           19337.16666667 -.00000248  00000-0 -50023-3 0 00008
2 03219 074.0910 229.6463 0009597 270.6667 236.6214 13.33855467
1 03220           19337.16666667 -.00000303  00000-0 -61132-3 0 00005
2 03220 074.0910 229.6463 0009601 270.6805 243.8075 13.33855528
1 03221           19337.16666667 -.00000347  00000-0 -70185-3 0 00002
2 03221 074.0910 229.6463 0009605 270.6974 250.9906 13.33855579
1 03222           19337.16666667 -.00000357  00000-0 -72071-3 0 00000
2 03222 074.0910 229.6463 0009608 270.7174 258.1706 13.33855596
1 03223           19337.16666667 -.00000340  00000-0 -68599-3 0 00003
2 03223 074.0910 229.6463 0009611 270.7403 265.3476 13.33855587
1 03224           19337.16666667 -.00000298  00000-0 -60103-3 0 00009
2 03224 074.0910 229.6463 0009614 270.7661 272.5219 13.33855553
1 03225           19337.16666667 -.00000234  00000-0 -47244-3 0 00001
2 03225 074.0910 229.6463 0009616 270.7943 279.6938 13.33855496
1 03226           19337.16666667 -.00000153  00000-0 -30961-3 0 00000
2 03226 074.0910 229.6463 0009618 270.8243 286.8638 13.33855420
1 03227           19337.16666667 -.00000052  00000-0 -10573-3 0 00006
2 03227 074.0910 229.6463 0009619 270.8557 294.0325 13.33855324
1 03228           19337.16666667  .00000039  00000-0  78221-4 0 00005
2 03228 074.0910 229.6462 0009619 270.8876 301.2006 13.33855232
1 03229           19337.16666667  .00000130  00000-0  26318-3 0 00007
2 03229 074.0910 229.6462 0009619 270.9193 308.3690 13.33855138
1 03230           19337.16666667  .00000216  00000-0  43543-3 0 00003
2 03230 074.0910 229.6462 0009617 270.9500 315.5384 13.33855048
1 03231           19337.16666667  .00000288  00000-0  58184-3 0 00000
2 03231 074.0910 229.6462 0009615 270.9790 322.7094 13.33854970
1 03232           19337.16666667  .00000342  00000-0  69080-3 0 00009
2 03232 074.0910 229.6462 0009613 271.0059 329.8826 13.33854908
1 03233           19337.16666667  .00000373  00000-0  75276-3 0 00008
2 03233 074.0910 229.6462 0009610 271.0301 337.0584 13.33854868
1 03234           19337.16666667  .00000377  00000-0  76124-3 0 00006
2 03234 074.0910 229.6462 0009606 271.0513 344.2373 13.33854855
1 03235           19337.16666667  .00000342  00000-0  69001-3 0 00005
2 03235 074.0910 229.6462 0009602 271.0694 351.4192 13.33854884
1 03236           19337.16666667  .00000291  00000-0  58733-3 0 00009
2 03236 074.0910 229.6462 0009598 271.0844 358.6041 13.33854929
1 03237           19337.16666667  .00000217  00000-0  43860-3 0 00003
2 03237 074.0910 229.6462 0009594 271.0963 005.7922 13.33854999
1 03238           19337.16666667  .00000135  00000-0  27235-3 0 00001
2 03238 074.0910 229.6462 0009590 271.1053 012.9831 13.33855078
1 03239           19337.16666667  .00000027  00000-0  54701-4 0 00001
2 03239 074.0910 229.6462 0009585 271.1114 020.1769 13.33855189
1 03240           19337.16666667 -.00000088  00000-0 -17683-3 0 00009
2 03240 074.0910 229.6463 0009581 271.1147 027.3735 13.33855310
1 03241           19337.16666667 -.00000201  00000-0 -40661-3 0 00009
2 03241 074.0910 229.6463 0009576 271.1151 034.5730 13.33855433
1 03242           19337.16666667 -.00000306  00000-0 -61873-3 0 00004
2 03242 074.0910 229.6463 0009571 271.1126 041.7754 13.33855550
1 03243           19337.16666667 -.00000395  00000-0 -79840-3 0 00006
2 03243 074.0910 229.6463 0009567 271.1070 048.9809 13.33855654
1 03244           19337.16666667 -.00000462  00000-0 -93299-3 0 00006
2 03244 074.0910 229.6463 0009562 271.0981 056.1897 13.33855738
1 03245           19337.16666667 -.00000502  00000-0 -10130-2 0 00004
2 03245 074.0910 229.6463 0009558 271.0856 063.4021 13.33855797
1 03246           19337.16666667 -.00000528  00000-0 -10656-2 0 00006
2 03246 074.0910 229.6463 0009553 271.0694 070.6183 13.33855841
1 03247           19337.16666667 -.00000515  00000-0 -10411-2 0 00002
2 03247 074.0910 229.6463 0009549 271.0495 077.8382 13.33855847
1 03248           19337.16666667 -.00000474  00000-0 -95781-3 0 00001
2 03248 074.0910 229.6463 0009546 271.0259 085.0618 13.33855824
1 03249           19337.16666667 -.00000406  00000-0 -82000-3 0 00007
2 03249 074.0910 229.6463 0009543 270.9988 092.2889 13.33855771
1 03250           19337.16666667 -.00000321  00000-0 -64934-3 0 00006
2 03250 074.1174 274.6224 0009541 270.9701 099.6006 13.33856269
1 03251           19337.16666667 -.00000211  00000-0 -42707-3 0 00009
2 03251 074.1174 274.6224 0009539 270.9377 106.8331 13.33856167
1 03252           19337.16666667 -.00000081  00000-0 -16288-3 0 00000
2 03252 074.1174 274.6224 0009538 270.9036 114.0672 13.33856043
1 03253           19337.16666667  .00000041  00000-0  83081-4 0 00001
2 03253 074.1174 274.6224 0009538 270.8690 121.3020 13.33855921
1 03254           19337.16666667  .00000163  00000-0  32921-3 0 00003
2 03254 074.1174 274.6224 0009539 270.8346 128.5364 13.33855795
1 03255           19337.16666667  .00000278  00000-0  56111-3 0 00008
2 03255 074.1174 274.6224 0009540 270.8014 135.7697 13.33855672
